GOES 19                 
1 60133U 24119A   26116.47907310 -.00000261  00000+0  00000+0 0  9995
2 60133   0.0294  93.6133 0000417 353.3720 224.7600  1.00272780  6442
FENGYUN 3H              
1 65815U 25219A   26116.45971550  .00000064  00000+0  50606-4 0  9996
2 65815  98.6741  58.2432 0000832 105.8699 254.2569 14.19944013 30043
