[{"OBJECT_NAME":"GOES 19","OBJECT_ID":"2024-119A","EPOCH":"2026-04-26T11:29:51.915840","MEAN_MOTION":1.0027278,"ECCENTRICITY":4.17e-5,"INCLINATION":0.0294,"RA_OF_ASC_NODE":93.6133,"ARG_OF_PERICENTER":353.372,"MEAN_ANOMALY":224.76,"EPHEMERIS_TYPE":0,"CLASSIFICATION_TYPE":"U","NORAD_CAT_ID":60133,"ELEMENT_SET_NO":999,"REV_AT_EPOCH":644,"BSTAR":0,"MEAN_MOTION_DOT":-2.61e-6,"MEAN_MOTION_DDOT":0},{"OBJECT_NAME":"FENGYUN 3H","OBJECT_ID":"2025-219A","EPOCH":"2026-04-26T11:01:59.419200","MEAN_MOTION":14.19944013,"ECCENTRICITY":8.32e-5,"INCLINATION":98.6741,"RA_OF_ASC_NODE":58.2432,"ARG_OF_PERICENTER":105.8699,"MEAN_ANOMALY":254.2569,"EPHEMERIS_TYPE":0,"CLASSIFICATION_TYPE":"U","NORAD_CAT_ID":65815,"ELEMENT_SET_NO":999,"REV_AT_EPOCH":3004,"BSTAR":5.0606e-5,"MEAN_MOTION_DOT":6.4e-7,"MEAN_MOTION_DDOT":0}]
